{
    "links": {
        "self": "http://www.neowsapp.com/rest/v1/neo/3680266?api_key=iIulBulltgU6a56xZRHN4H3l9WmuAYTsLGpBGhQ2"
    },
    "id": "3680266",
    "neo_reference_id": "3680266",
    "name": "(2014 PY58)",
    "designation": "2014 PY58",
    "nasa_jpl_url": "http://ssd.jpl.nasa.gov/sbdb.cgi?sstr=3680266",
    "absolute_magnitude_h": 22.1,
    "estimated_diameter": {
        "kilometers": {
            "estimated_diameter_min": 0.1010543415,
            "estimated_diameter_max": 0.2259643771
        },
        "meters": {
            "estimated_diameter_min": 101.054341542,
            "estimated_diameter_max": 225.9643771094
        },
        "miles": {
            "estimated_diameter_min": 0.0627922373,
            "estimated_diameter_max": 0.140407711
        },
        "feet": {
            "estimated_diameter_min": 331.5431259047,
            "estimated_diameter_max": 741.3529669956
        }
    },
    "is_potentially_hazardous_asteroid": false,
    "close_approach_data": [
        {
            "close_approach_date": "1957-08-14",
            "close_approach_date_full": "1957-Aug-14 10:32",
            "epoch_date_close_approach": -390749280000,
            "relative_velocity": {
                "kilometers_per_second": "10.4508596858",
                "kilometers_per_hour": "37623.0948688026",
                "miles_per_hour": "23377.5280311179"
            },
            "miss_distance": {
                "astronomical": "0.2623348165",
                "lunar": "102.0482436185",
                "kilometers": "39244729.775240855",
                "miles": "24385544.309619599"
            },
            "orbiting_body": "Earth"
        },
        {
            "close_approach_date": "1976-08-17",
            "close_approach_date_full": "1976-Aug-17 09:37",
            "epoch_date_close_approach": 209122620000,
            "relative_velocity": {
                "kilometers_per_second": "13.9467534943",
                "kilometers_per_hour": "50208.312579435",
                "miles_per_hour": "31197.4928913717"
            },
            "miss_distance": {
                "astronomical": "0.4118212064",
                "lunar": "160.1984492896",
                "kilometers": "61607575.298270368",
                "miles": "38281172.1688043584"
            },
            "orbiting_body": "Earth"
        },
        {
            "close_approach_date": "1995-08-18",
            "close_approach_date_full": "1995-Aug-18 19:58",
            "epoch_date_close_approach": 808775880000,
            "relative_velocity": {
                "kilometers_per_second": "13.2351173203",
                "kilometers_per_hour": "47646.4223532517",
                "miles_per_hour": "29605.6339338858"
            },
            "miss_distance": {
                "astronomical": "0.3316105387",
                "lunar": "128.9964995543",
                "kilometers": "49608230.259072569",
                "miles": "30825124.9029526922"
            },
            "orbiting_body": "Earth"
        },
        {
            "close_approach_date": "2014-08-14",
            "close_approach_date_full": "2014-Aug-14 09:28",
            "epoch_date_close_approach": 1408008480000,
            "relative_velocity": {
                "kilometers_per_second": "10.4637079609",
                "kilometers_per_hour": "37669.3486592112",
                "miles_per_hour": "23406.2683377193"
            },
            "miss_distance": {
                "astronomical": "0.2876790749",
                "lunar": "111.9071601361",
                "kilometers": "43036176.848610463",
                "miles": "26741440.2766638694"
            },
            "orbiting_body": "Earth"
        },
        {
            "close_approach_date": "2071-08-15",
            "close_approach_date_full": "2071-Aug-15 17:01",
            "epoch_date_close_approach": 3206883660000,
            "relative_velocity": {
                "kilometers_per_second": "10.8863663513",
                "kilometers_per_hour": "39190.918864689",
                "miles_per_hour": "24351.7128912286"
            },
            "miss_distance": {
                "astronomical": "0.2574388695",
                "lunar": "100.1437202355",
                "kilometers": "38512306.532407965",
                "miles": "23930437.610101317"
            },
            "orbiting_body": "Earth"
        }
    ],
    "orbital_data": {
        "orbit_id": "7",
        "orbit_determination_date": "2017-04-06 08:39:20",
        "first_observation_date": "2014-08-04",
        "last_observation_date": "2014-09-27",
        "data_arc_in_days": 54,
        "observations_used": 20,
        "orbit_uncertainty": "6",
        "minimum_orbit_intersection": ".237603",
        "jupiter_tisserand_invariant": "3.262",
        "epoch_osculation": "2459000.5",
        "eccentricity": ".4965728607236252",
        "semi_major_axis": "2.430517576660308",
        "inclination": "19.04858520078568",
        "ascending_node_longitude": "333.6257388073536",
        "orbital_period": "1384.033416581236",
        "perihelion_distance": "1.223588510579046",
        "perihelion_argument": "333.083985781697",
        "aphelion_distance": "3.637446642741571",
        "perihelion_time": "2459625.363864045962",
        "mean_anomaly": "197.4670810967786",
        "mean_motion": ".2601093266152867",
        "equinox": "J2000",
        "orbit_class": {
            "orbit_class_type": "AMO",
            "orbit_class_description": "Near-Earth asteroid orbits similar to that of 1221 Amor",
            "orbit_class_range": "1.017 AU < q (perihelion) < 1.3 AU"
        }
    },
    "is_sentry_object": false
}